[{"OBJECT_NAME":"SJ-11-02","OBJECT_ID":"2011-039A","EPOCH":"2026-03-09T16:40:57.382176","MEAN_MOTION":14.64358784,"ECCENTRICITY":0.00098038,"INCLINATION":98.2752,"RA_OF_ASC_NODE":318.2771,"ARG_OF_PERICENTER":209.2906,"MEAN_ANOMALY":212.5003,"EPHEMERIS_TYPE":0,"CLASSIFICATION_TYPE":"U","NORAD_CAT_ID":37765,"ELEMENT_SET_NO":999,"REV_AT_EPOCH":77939,"BSTAR":0.00016869851,"MEAN_MOTION_DOT":8.42e-6,"MEAN_MOTION_DDOT":0},{"OBJECT_NAME":"COSMOS 2251 DEB","OBJECT_ID":"1993-036UB","EPOCH":"2026-03-09T09:49:50.399904","MEAN_MOTION":14.71691411,"ECCENTRICITY":0.00376677,"INCLINATION":74.0362,"RA_OF_ASC_NODE":55.4324,"ARG_OF_PERICENTER":97.3831,"MEAN_ANOMALY":54.3057,"EPHEMERIS_TYPE":0,"CLASSIFICATION_TYPE":"U","NORAD_CAT_ID":34482,"ELEMENT_SET_NO":999,"REV_AT_EPOCH":89461,"BSTAR":0.0022222482,"MEAN_MOTION_DOT":0.00014004,"MEAN_MOTION_DDOT":0}]
